{"type": "FeatureCollection", "features": [ {"type": "Feature", "properties": {"norad_id": 39122, "name": "EUTELSAT 117 WEST A", "group": "eutelsat", "lat": 0.04149162340557524, "lon": 105.10211845728419, "alt_km": 35796.96543752965, "timestamp": "2025-12-18T08:58:43.063400+00:00", "meta": {"OBJECT_NAME": "EUTELSAT 117 WEST A", "OBJECT_ID": "2013-012A", "EPOCH": "2025-12-17T21:19:42.079008", "MEAN_MOTION": 1.00272801, "ECCENTRICITY": 0.0002719, "INCLINATION": 0.0266, "RA_OF_ASC_NODE": 43.835, "ARG_OF_PERICENTER": 227.5866, "MEAN_ANOMALY": 18.4652, "EPHEMERIS_TYPE": 0, "CLASSIFICATION_TYPE": "U", "NORAD_CAT_ID": 39122, "ELEMENT_SET_NO": 999, "REV_AT_EPOCH": 4661, "BSTAR": 0, "MEAN_MOTION_DOT": 1.2e-07, "MEAN_MOTION_DDOT": 0}, "tle": {"line1": "1 39122U 13012A   25351.88868147  .00000012  00000+0  00000+0 0  9991", "line2": "2 39122   0.0266  43.8350 0002719 227.5866  18.4652  1.00272801 46615"}}, "geometry": {"type": "Point", "coordinates": [105.10211845728419, 0.04149162340557524]}}, {"type": "Feature", "properties": {"norad_id": 39163, "name": "EUTELSAT 7B", "group": "eutelsat", "lat": -0.07727606341299934, "lon": -131.13708602452542, "alt_km": 35787.066660159464, "timestamp": "2025-12-18T08:58:43.063412+00:00", "meta": {"OBJECT_NAME": "EUTELSAT 7B", "OBJECT_ID": "2013-022A", "EPOCH": "2025-12-17T18:29:45.341952", "MEAN_MOTION": 1.00270134, "ECCENTRICITY": 0.0004278, "INCLINATION": 0.0655, "RA_OF_ASC_NODE": 353.712, "ARG_OF_PERICENTER": 327.1935, "MEAN_ANOMALY": 50.1863, "EPHEMERIS_TYPE": 0, "CLASSIFICATION_TYPE": "U", "NORAD_CAT_ID": 39163, "ELEMENT_SET_NO": 999, "REV_AT_EPOCH": 4612, "BSTAR": 0, "MEAN_MOTION_DOT": 7.3e-07, "MEAN_MOTION_DDOT": 0}, "tle": {"line1": "1 39163U 13022A   25351.77066368  .00000073  00000+0  00000+0 0  9997", "line2": "2 39163   0.0655 353.7120 0004278 327.1935  50.1863  1.00270134 46126"}}, "geometry": {"type": "Point", "coordinates": [-131.13708602452542, -0.07727606341299934]}}, {"type": "Feature", "properties": {"norad_id": 39612, "name": "EXPRESS-AT1", "group": "eutelsat", "lat": -0.018201375864268305, "lon": -82.09332652779622, "alt_km": 35788.35849940769, "timestamp": "2025-12-18T08:58:43.063425+00:00", "meta": {"OBJECT_NAME": "EXPRESS-AT1", "OBJECT_ID": "2014-010A", "EPOCH": "2025-12-17T22:09:07.344288", "MEAN_MOTION": 1.00270901, "ECCENTRICITY": 5.622e-05, "INCLINATION": 0.0127, "RA_OF_ASC_NODE": 292.481, "ARG_OF_PERICENTER": 195.0491, "MEAN_ANOMALY": 347.543, "EPHEMERIS_TYPE": 0, "CLASSIFICATION_TYPE": "U", "NORAD_CAT_ID": 39612, "ELEMENT_SET_NO": 999, "REV_AT_EPOCH": 4300, "BSTAR": 0, "MEAN_MOTION_DOT": 1.04e-06, "MEAN_MOTION_DDOT": 0}, "tle": {"line1": "1 39612U 14010A   25351.92300167  .00000104  00000+0  00000+0 0  9994", "line2": "2 39612   0.0127 292.4810 0000562 195.0491 347.5430  1.00270901 43004"}}, "geometry": {"type": "Point", "coordinates": [-82.09332652779622, -0.018201375864268305]}}, {"type": "Feature", "properties": {"norad_id": 39613, "name": "EXPRESS-AT2", "group": "eutelsat", "lat": 0.02152506723174612, "lon": 1.7723540793741732, "alt_km": 35784.91681348345, "timestamp": "2025-12-18T08:58:43.063437+00:00", "meta": {"OBJECT_NAME": "EXPRESS-AT2", "OBJECT_ID": "2014-010B", "EPOCH": "2025-12-17T20:50:22.386624", "MEAN_MOTION": 1.00272313, "ECCENTRICITY": 0.0001007, "INCLINATION": 0.0158, "RA_OF_ASC_NODE": 291.1378, "ARG_OF_PERICENTER": 355.4108, "MEAN_ANOMALY": 252.6388, "EPHEMERIS_TYPE": 0, "CLASSIFICATION_TYPE": "U", "NORAD_CAT_ID": 39613, "ELEMENT_SET_NO": 999, "REV_AT_EPOCH": 4268, "BSTAR": 0, "MEAN_MOTION_DOT": -2.56e-06, "MEAN_MOTION_DDOT": 0}, "tle": {"line1": "1 39613U 14010B   25351.86831466 -.00000256  00000+0  00000+0 0  9998", "line2": "2 39613   0.0158 291.1378 0001007 355.4108 252.6388  1.00272313 42686"}}, "geometry": {"type": "Point", "coordinates": [1.7723540793741732, 0.02152506723174612]}}, {"type": "Feature", "properties": {"norad_id": 39773, "name": "EUTELSAT 3B", "group": "eutelsat", "lat": -0.06453149241591606, "lon": -135.01176889694693, "alt_km": 35768.218761974545, "timestamp": "2025-12-18T08:58:43.063449+00:00", "meta": {"OBJECT_NAME": "EUTELSAT 3B", "OBJECT_ID": "2014-030A", "EPOCH": "2025-12-17T18:28:37.949088", "MEAN_MOTION": 1.00272044, "ECCENTRICITY": 0.00042366, "INCLINATION": 0.0605, "RA_OF_ASC_NODE": 0.3978, "ARG_OF_PERICENTER": 231.5414, "MEAN_ANOMALY": 134.9492, "EPHEMERIS_TYPE": 0, "CLASSIFICATION_TYPE": "U", "NORAD_CAT_ID": 39773, "ELEMENT_SET_NO": 999, "REV_AT_EPOCH": 4224, "BSTAR": 0, "MEAN_MOTION_DOT": 4.5e-07, "MEAN_MOTION_DDOT": 0}, "tle": {"line1": "1 39773U 14030A   25351.76988367  .00000045  00000+0  00000+0 0  9994", "line2": "2 39773   0.0605   0.3978 0004236 231.5414 134.9492  1.00272044 42248"}}, "geometry": {"type": "Point", "coordinates": [-135.01176889694693, -0.06453149241591606]}}, {"type": "Feature", "properties": {"norad_id": 40425, "name": "EUTELSAT 115 WEST B", "group": "eutelsat", "lat": -0.01270782423347945, "lon": 106.98666358962681, "alt_km": 35787.774101002076, "timestamp": "2025-12-18T08:58:43.063461+00:00", "meta": {"OBJECT_NAME": "EUTELSAT 115 WEST B", "OBJECT_ID": "2015-010B", "EPOCH": "2025-12-17T16:12:13.512096", "MEAN_MOTION": 1.00267064, "ECCENTRICITY": 4.229e-05, "INCLINATION": 0.0106, "RA_OF_ASC_NODE": 156.1605, "ARG_OF_PERICENTER": 53.1601, "MEAN_ANOMALY": 5.3821, "EPHEMERIS_TYPE": 0, "CLASSIFICATION_TYPE": "U", "NORAD_CAT_ID": 40425, "ELEMENT_SET_NO": 999, "REV_AT_EPOCH": 3957, "BSTAR": 0, "MEAN_MOTION_DOT": 1e-08, "MEAN_MOTION_DDOT": 0}, "tle": {"line1": "1 40425U 15010B   25351.67515639  .00000001  00000+0  00000+0 0  9999", "line2": "2 40425   0.0106 156.1605 0000422  53.1601   5.3821  1.00267064 39571"}}, "geometry": {"type": "Point", "coordinates": [106.98666358962681, -0.01270782423347945]}}, {"type": "Feature", "properties": {"norad_id": 40875, "name": "EUTELSAT 8 WEST B", "group": "eutelsat", "lat": -0.06248135691448408, "lon": -146.12199444582592, "alt_km": 35775.40949741575, "timestamp": "2025-12-18T08:58:43.063473+00:00", "meta": {"OBJECT_NAME": "EUTELSAT 8 WEST B", "OBJECT_ID": "2015-039B", "EPOCH": "2025-12-17T18:25:30.747936", "MEAN_MOTION": 1.00271856, "ECCENTRICITY": 0.00043012, "INCLINATION": 0.0639, "RA_OF_ASC_NODE": 351.693, "ARG_OF_PERICENTER": 276.4787, "MEAN_ANOMALY": 86.8592, "EPHEMERIS_TYPE": 0, "CLASSIFICATION_TYPE": "U", "NORAD_CAT_ID": 40875, "ELEMENT_SET_NO": 999, "REV_AT_EPOCH": 3783, "BSTAR": 0, "MEAN_MOTION_DOT": -4e-07, "MEAN_MOTION_DDOT": 0}, "tle": {"line1": "1 40875U 15039B   25351.76771699 -.00000040  00000+0  00000+0 0  9993", "line2": "2 40875   0.0639 351.6930 0004301 276.4787  86.8592  1.00271856 37839"}}, "geometry": {"type": "Point", "coordinates": [-146.12199444582592, -0.06248135691448408]}}, {"type": "Feature", "properties": {"norad_id": 41310, "name": "EUTELSAT 9B", "group": "eutelsat", "lat": -0.004227467803655021, "lon": -129.1406655003769, "alt_km": 35772.09291826876, "timestamp": "2025-12-18T08:58:43.063485+00:00", "meta": {"OBJECT_NAME": "EUTELSAT 9B", "OBJECT_ID": "2016-005A", "EPOCH": "2025-12-17T18:30:15.294240", "MEAN_MOTION": 1.00271916, "ECCENTRICITY": 0.0004478, "INCLINATION": 0.0567, "RA_OF_ASC_NODE": 69.7929, "ARG_OF_PERICENTER": 204.0571, "MEAN_ANOMALY": 99.3453, "EPHEMERIS_TYPE": 0, "CLASSIFICATION_TYPE": "U", "NORAD_CAT_ID": 41310, "ELEMENT_SET_NO": 999, "REV_AT_EPOCH": 3629, "BSTAR": 0, "MEAN_MOTION_DOT": 8.7e-07, "MEAN_MOTION_DDOT": 0}, "tle": {"line1": "1 41310U 16005A   25351.77101035  .00000087  00000+0  00000+0 0  9994", "line2": "2 41310   0.0567  69.7929 0004478 204.0571  99.3453  1.00271916 36293"}}, "geometry": {"type": "Point", "coordinates": [-129.1406655003769, -0.004227467803655021]}}, {"type": "Feature", "properties": {"norad_id": 41382, "name": "EUTELSAT 65 WEST A", "group": "eutelsat", "lat": -0.008303678760658137, "lon": 156.66552831459458, "alt_km": 35791.51722541728, "timestamp": "2025-12-18T08:58:43.063532+00:00", "meta": {"OBJECT_NAME": "EUTELSAT 65 WEST A", "OBJECT_ID": "2016-014A", "EPOCH": "2025-12-17T18:09:09.814176", "MEAN_MOTION": 1.00270073, "ECCENTRICITY": 0.00023147, "INCLINATION": 0.0567, "RA_OF_ASC_NODE": 325.978, "ARG_OF_PERICENTER": 310.7281, "MEAN_ANOMALY": 17.001, "EPHEMERIS_TYPE": 0, "CLASSIFICATION_TYPE": "U", "NORAD_CAT_ID": 41382, "ELEMENT_SET_NO": 999, "REV_AT_EPOCH": 3571, "BSTAR": 0, "MEAN_MOTION_DOT": -2.51e-06, "MEAN_MOTION_DDOT": 0}, "tle": {"line1": "1 41382U 16014A   25351.75636359 -.00000251  00000+0  00000+0 0  9997", "line2": "2 41382   0.0567 325.9780 0002314 310.7281  17.0010  1.00270073 35719"}}, "geometry": {"type": "Point", "coordinates": [156.66552831459458, -0.008303678760658137]}}, {"type": "Feature", "properties": {"norad_id": 41589, "name": "EUTELSAT 117 WEST B", "group": "eutelsat", "lat": -0.012769505679471237, "lon": 104.91186684420938, "alt_km": 35786.931135606, "timestamp": "2025-12-18T08:58:43.063551+00:00", "meta": {"OBJECT_NAME": "EUTELSAT 117 WEST B", "OBJECT_ID": "2016-038B", "EPOCH": "2025-12-17T21:19:49.567296", "MEAN_MOTION": 1.00271876, "ECCENTRICITY": 3.601e-05, "INCLINATION": 0.0113, "RA_OF_ASC_NODE": 157.4202, "ARG_OF_PERICENTER": 73.0441, "MEAN_ANOMALY": 59.2611, "EPHEMERIS_TYPE": 0, "CLASSIFICATION_TYPE": "U", "NORAD_CAT_ID": 41589, "ELEMENT_SET_NO": 999, "REV_AT_EPOCH": 3484, "BSTAR": 0, "MEAN_MOTION_DOT": 1.3e-07, "MEAN_MOTION_DDOT": 0}, "tle": {"line1": "1 41589U 16038B   25351.88876814  .00000013  00000+0  00000+0 0  9993", "line2": "2 41589   0.0113 157.4202 0000360  73.0441  59.2611  1.00271876 34848"}}, "geometry": {"type": "Point", "coordinates": [104.91186684420938, -0.012769505679471237]}}]}